satNo,name,line1,line2,inclination,apogee,raan,argument_of_perigee,eccentricity,mean_motion,hdbscan_labels
53607,STARLINK-4591,1 53607U 22104V   26027.28521180  .00000890  00000-0  73987-4 0  9999,2 53607  53.2182  65.0443 0001189  90.6640 269.4488 15.08836222189433,53.2182,547.714474174072,65.0443,90.664,0.0001189,15.08836222,1118
53608,STARLINK-4647,1 53608U 22104W   26027.23232601  .00000659  00000-0  59486-4 0  9993,2 53608  53.2191  60.4214 0001546 100.7239 259.3927 15.08838791189375,53.2191,547.953589275348,60.4214,100.7239,0.0001546,15.08838791,-1
53609,STARLINK-4660,1 53609U 22104X   26027.31828738  .00001958  00000-0  14109-3 0  9990,2 53609  53.2170  64.5443 0001452  80.3449 279.7707 15.08840311189445,53.217,547.8839144561309,64.5443,80.3449,0.0001452,15.08840311,-1
53610,STARLINK-4610,1 53610U 22104Y   26027.29215328  .00001340  00000-0  10227-3 0  9996,2 53610  53.2185  60.0846 0001468  88.1523 271.9638 15.08842199189383,53.2185,547.889211363378,60.0846,88.1523,0.0001468,15.08842199,812
53612,STARLINK-4658,1 53612U 22104AA  26027.28751173  .00001969  00000-0  14178-3 0  9996,2 53612  53.2177  60.0563 0001546  93.7048 266.4121 15.08841063189388,53.2177,547.9466436060807,60.0563,93.7048,0.0001546,15.08841063,812
53613,STARLINK-4655,1 53613U 22104AB  26027.29488088  .00002563  00000-0  17908-3 0  9995,2 53613  53.2178  60.1025 0001513  90.0149 270.1017 15.08833867189389,53.2178,547.945813294203,60.1025,90.0149,0.0001513,15.08833867,812
53616,STARLINK-4605,1 53616U 22104AE  26027.28472868  .00000239  00000-0  33134-4 0  9994,2 53616  53.2178  49.8713 0001346 101.5922 258.5222 15.08836539189636,53.2178,547.8221160010044,49.8713,101.5922,0.0001346,15.08836539,1001
53619,STARLINK-4609,1 53619U 22104AH  26027.28014448  .00000082  00000-0  23253-4 0  9990,2 53619  53.2186  60.0089 0001374  92.5302 267.5847 15.08838527189385,53.2186,547.8354087235518,60.0089,92.5302,0.0001374,15.08838527,813
53620,STARLINK-4615,1 53620U 22104AJ  26027.26540520  .00000971  00000-0  79091-4 0  9993,2 53620  53.2167  59.9176 0001491  91.6182 268.4981 15.08838442189493,53.2167,547.9166078269482,59.9176,91.6182,0.0001491,15.08838442,-1
53621,STARLINK-4608,1 53621U 22104AK  26027.27645949  .00000600  00000-0  55766-4 0  9998,2 53621  53.2182  59.9861 0001223  90.3143 269.7989 15.08835711189384,53.2182,547.7395571272112,59.9861,90.3143,0.0001223,15.08835711,813
53622,STARLINK-4568,1 53622U 22104AL  26027.30954004  .00000261  00000-0  34465-4 0  9994,2 53622  53.2179  59.4894 0001319  95.1308 264.9835 15.08834591189500,53.2179,547.8093927666218,59.4894,95.1308,0.0001319,15.08834591,692
53623,STARLINK-4573,1 53623U 22104AM  26027.26909213  .00004629  00000-0  30876-3 0  9995,2 53623  53.2173  59.9401 0001456  81.4915 278.6242 15.08833378189492,53.2173,547.9078761746623,59.9401,81.4915,0.0001456,15.08833378,813
53624,STARLINK-4596,1 53624U 22104AN  26027.32428272 -.00000707  00000-0 -26343-4 0  9994,2 53624  53.2172  59.5773 0001271 100.2391 259.8744 15.08827894189509,53.2172,547.7966597110079,59.5773,100.2391,0.0001271,15.08827894,692
53626,STARLINK-4554,1 53626U 22104AQ  26027.31322307  .00000293  00000-0  36500-4 0  9991,2 53626  53.2172  59.5068 0001380  74.8727 285.2417 15.08835092189518,53.2172,547.8500603612205,59.5068,74.8727,0.000138,15.08835092,692
53627,STARLINK-4595,1 53627U 22104AR  26027.32059166 -.00000979  00000-0 -43417-4 0  9991,2 53627  53.2172  59.5531 0001173  89.3218 270.7908 15.08845354189516,53.2172,547.6754894264061,59.5531,89.3218,0.0001173,15.08845354,692
53628,STARLINK-4600,1 53628U 22104AS  26027.30584986  .00000838  00000-0  70765-4 0  9991,2 53628  53.2179  59.4614 0001477  89.7280 270.3881 15.08837322189517,53.2179,547.9103466933193,59.4614,89.728,0.0001477,15.08837322,692
53629,STARLINK-4602,1 53629U 22104AT  26027.31690699  .00000768  00000-0  66352-4 0  9991,2 53629  53.2171  59.5261 0001610 103.8226 256.2945 15.08837022189517,53.2171,548.0032717418419,59.5261,103.8226,0.000161,15.08837022,692
53630,STARLINK-4598,1 53630U 22104AU  26027.28571035  .00001418  00000-0  10714-3 0  9994,2 53630  53.2175  50.0639 0001413  88.9905 271.1249 15.08838107189817,53.2175,547.8636724303867,50.0639,88.9905,0.0001413,15.08838107,-1
53631,STARLINK-4599,1 53631U 22104AV  26027.30216575  .00000156  00000-0  27916-4 0  9994,2 53631  53.2187  59.4410 0001530  94.3567 265.7600 15.08835156189514,53.2187,547.9536331387031,59.441,94.3567,0.000153,15.08835156,692
53632,STARLINK-4606,1 53632U 22104AW  26027.27738225 -.00000180  00000-0  67620-5 0  9997,2 53632  53.2171  50.0146 0001077  95.6293 264.4822 15.08836996189972,53.2171,547.6346277123633,50.0146,95.6293,0.0001077,15.08836996,1051
53633,STARLINK-4593,1 53633U 22104AX  26027.28106547  .00001180  00000-0  92203-4 0  9999,2 53633  53.2182  50.0358 0001469  83.0889 277.0271 15.08839429189643,53.2182,547.8983711687457,50.0358,83.0889,0.0001469,15.08839429,1051
53634,STARLINK-4592,1 53634U 22104AY  26027.33625059  .00001842  00000-0  13377-3 0  9999,2 53634  53.2178  49.6683 0001554  95.0822 265.0347 15.08842194189980,53.2178,547.9487203622563,49.6683,95.0822,0.0001554,15.08842194,845
53636,STARLINK-4586,1 53636U 22104BA  26027.32890102  .00023408  00000-0  14816-2 0  9993,2 53636  53.2179  49.6242 0001398  83.5577 276.5574 15.08897642189986,53.2179,547.6713010870377,49.6242,83.5577,0.0001398,15.08897642,845
53637,STARLINK-4396,1 53637U 22104BB  26027.29676361  .00000483  00000-0  48446-4 0  9995,2 53637  53.2172  50.1249 0001326  85.3452 274.7691 15.08837429189973,53.2172,547.8055594753334,50.1249,85.3452,0.0001326,15.08837429,-1
53638,STARLINK-4594,1 53638U 22104BC  26027.31046054  .00000333  00000-0  38992-4 0  9998,2 53638  53.2170  49.5099 0001269  93.8330 266.2807 15.08839326189986,53.217,547.7603283960224,49.5099,93.833,0.0001269,15.08839326,845
53639,STARLINK-4422,1 53639U 22104BD  26027.32519427  .00000634  00000-0  57913-4 0  9997,2 53639  53.2180  49.5980 0001385  94.7075 265.4075 15.08841408189816,53.218,547.8342111125384,49.598,94.7075,0.0001385,15.08841408,845
53640,STARLINK-4597,1 53640U 22104BE  26027.32152094  .00006665  00000-0  43621-3 0  9992,2 53640  53.2179  49.5781 0001298  81.8246 278.2893 15.08859044189988,53.2179,547.720113005939,49.5781,81.8246,0.0001298,15.08859044,845
53641,STARLINK-4588,1 53641U 22104BF  26027.26632611  .00000922  00000-0  76008-4 0  9990,2 53641  53.2193  49.9415 0001476  89.0049 271.1112 15.08838469189975,53.2193,547.9061484587006,49.9415,89.0049,0.0001476,15.08838469,1050
53648,STARLINK-4622,1 53648U 22105A   26026.65398205  .00000637  00000-0  54165-4 0  9991,2 53648  97.6027 269.0522 0000555 103.5345 256.5941 15.01255614186930,97.6027,570.5456010878049,269.0522,103.5345,5.55e-05,15.01255614,-1
53649,STARLINK-4386,1 53649U 22105B   26027.24098696 -.00000331  00000-0 -18754-4 0  9996,2 53649  97.6019 270.4160 0002663  61.9990 298.1506 15.05648593187061,97.6019,558.4973037282061,270.416,61.999,0.0002663,15.05648593,254
53650,STARLINK-4380,1 53650U 22105C   26027.25014544  .00001412  00000-0  11443-3 0  9995,2 53650  97.6014 269.6349 0001636  85.2753 274.8658 15.01268379187012,97.6014,571.2565877847849,269.6349,85.2753,0.0001636,15.01268379,260
53651,STARLINK-4388,1 53651U 22105D   26027.25758414  .00014854  00000-0  10312-2 0  9994,2 53651  97.6011 270.3843 0002881 105.2129 254.9416 15.05657198187062,97.6011,558.6219240478891,270.3843,105.2129,0.0002881,15.05657198,254
53652,STARLINK-4374,1 53652U 22105E   26027.24644417  .00000227  00000-0  22235-4 0  9999,2 53652  97.6027 269.6310 0000909 117.2709 242.8608 15.01254595187010,97.6027,570.7944593972712,269.631,117.2709,9.09e-05,15.01254595,260
53653,STARLINK-4390,1 53653U 22105F   26027.13162358 -.00029538  00000-0 -22966-2 0  9994,2 53653  97.6004 269.4826 0003391  63.1243 297.0328 15.01391818186993,97.6004,572.094171070151,269.4826,63.1243,0.0003391,15.01391818,-1
53654,STARLINK-4420,1 53654U 22105G   26027.13575493  .00000554  00000-0  42617-4 0  9995,2 53654  97.6016 270.2243 0002593  89.3946 270.7578 15.05645518187048,97.6016,558.4582448950922,270.2243,89.3946,0.0002593,15.05645518,229
53655,STARLINK-4470,1 53655U 22105H   26027.14406509 -.00000105  00000-0 -30740-5 0  9997,2 53655  97.6017 270.2208 0003173  91.6564 268.5026 15.05643572187049,97.6017,558.8660203775596,270.2208,91.6564,0.0003173,15.05643572,229
53656,STARLINK-4466,1 53656U 22105J   26027.16868025  .00001139  00000-0  93202-4 0  9992,2 53656  97.6000 269.5623 0000640  46.9951 313.1327 15.01257885187004,97.6,570.5976004268146,269.5623,46.9951,6.4e-05,15.01257885,259
53657,STARLINK-4469,1 53657U 22105K   26027.24004461  .00001555  00000-0  96400-5 0  9994,2 53657  97.6395 288.4907 0001718 136.8122 223.3279 15.79057567188158,97.6395,341.39962697159126,288.4907,136.8122,0.0001718,15.79057567,-1
53658,STARLINK-4452,1 53658U 22105L   26027.22714154  .00000805  00000-0  59962-4 0  9998,2 53658  97.6004 270.4040 0002935  58.2706 301.8807 15.05651003187064,97.6004,558.6783412679835,270.404,58.2706,0.0002935,15.05651003,254
53660,STARLINK-4473,1 53660U 22105N   26027.23163541  .00000741  00000-0  62191-4 0  9997,2 53660  97.6034 269.6146 0000650  24.0909 336.0346 15.01264548187018,97.6034,570.5840024751825,269.6146,24.0909,6.5e-05,15.01264548,260
53661,STARLINK-4472,1 53661U 22105P   26027.23372979  .00000543  00000-0  46772-4 0  9992,2 53661  97.6025 269.6227 0000251  59.2801 300.8448 15.01263106187018,97.6025,570.3114961382747,269.6227,59.2801,2.51e-05,15.01263106,260
53662,STARLINK-4357,1 53662U 22105Q   26027.13297880  .00000865  00000-0  64121-4 0  9994,2 53662  97.6006 270.1907 0002392  90.5836 269.5664 15.05648454187045,97.6006,558.3099908176754,270.1907,90.5836,0.0002392,15.05648454,229
53663,STARLINK-4457,1 53663U 22105R   26027.22436863  .00000443  00000-0  34894-4 0  9997,2 53663  97.6029 270.3960 0002048  87.5566 272.5895 15.05652293187064,97.6029,558.0599013993442,270.396,87.5566,0.0002048,15.05652293,254
